TEIKYOSAT-4 (OORURI)    
1 49396U 21102B   26068.67534185  .00002438  00000+0  15740-3 0  9994
2 49396  97.3797 101.9931 0010345 276.5421  83.4630 15.09119208237719
STARLINK-35328          
1 65652U 25211A   26068.72501779  .00013838  00000+0  96052-3 0  9992
2 65652  97.6041 114.0452 0001043  76.5947 283.5396 15.05684601 27041
